[Satellite]
VERSION=1.1
NAME=FENGYUN 1D
NICKNAME=FENGYUN 1D
TLE1=1 27431U 02024B   11060.01042502 -.00000123  00000-0 -46131-4 0  8320
TLE2=2 27431  98.7003  36.0480 0016155  90.9522 269.3471 14.09305742452392
